[{"OBJECT_NAME":"HULIANWANG DIGUI-81","OBJECT_ID":"2025-187J","EPOCH":"2026-03-05T14:33:51.519456","MEAN_MOTION":13.29341395,"ECCENTRICITY":0.00010618,"INCLINATION":50.0056,"RA_OF_ASC_NODE":217.3197,"ARG_OF_PERICENTER":138.2553,"MEAN_ANOMALY":221.84,"EPHEMERIS_TYPE":0,"CLASSIFICATION_TYPE":"U","NORAD_CAT_ID":65313,"ELEMENT_SET_NO":999,"REV_AT_EPOCH":2593,"BSTAR":4.8707127e-5,"MEAN_MOTION_DOT":-1.01e-6,"MEAN_MOTION_DDOT":0},{"OBJECT_NAME":"HULIANWANG DIGUI-82","OBJECT_ID":"2025-220A","EPOCH":"2026-03-05T14:06:34.470144","MEAN_MOTION":13.24421856,"ECCENTRICITY":0.00022602,"INCLINATION":86.4896,"RA_OF_ASC_NODE":78.8516,"ARG_OF_PERICENTER":100.4751,"MEAN_ANOMALY":259.6638,"EPHEMERIS_TYPE":0,"CLASSIFICATION_TYPE":"U","NORAD_CAT_ID":65817,"ELEMENT_SET_NO":999,"REV_AT_EPOCH":2120,"BSTAR":9.6413414e-5,"MEAN_MOTION_DOT":5.6e-7,"MEAN_MOTION_DDOT":0},{"OBJECT_NAME":"HULIANWANG DIGUI-83","OBJECT_ID":"2025-220B","EPOCH":"2026-03-05T13:55:46.010496","MEAN_MOTION":13.24421036,"ECCENTRICITY":0.00022523,"INCLINATION":86.4919,"RA_OF_ASC_NODE":78.8845,"ARG_OF_PERICENTER":100.4597,"MEAN_ANOMALY":259.6791,"EPHEMERIS_TYPE":0,"CLASSIFICATION_TYPE":"U","NORAD_CAT_ID":65818,"ELEMENT_SET_NO":999,"REV_AT_EPOCH":2120,"BSTAR":5.8157929e-5,"MEAN_MOTION_DOT":4.0e-7,"MEAN_MOTION_DDOT":0},{"OBJECT_NAME":"HULIANWANG DIGUI-84","OBJECT_ID":"2025-220C","EPOCH":"2026-03-05T13:44:50.923968","MEAN_MOTION":13.24421498,"ECCENTRICITY":0.00022464,"INCLINATION":86.4856,"RA_OF_ASC_NODE":78.7779,"ARG_OF_PERICENTER":99.6647,"MEAN_ANOMALY":260.4741,"EPHEMERIS_TYPE":0,"CLASSIFICATION_TYPE":"U","NORAD_CAT_ID":65819,"ELEMENT_SET_NO":999,"REV_AT_EPOCH":2120,"BSTAR":4.8344538e-5,"MEAN_MOTION_DOT":3.5e-7,"MEAN_MOTION_DDOT":0},{"OBJECT_NAME":"HULIANWANG DIGUI-85","OBJECT_ID":"2025-220D","EPOCH":"2026-03-05T15:22:41.512800","MEAN_MOTION":13.24422018,"ECCENTRICITY":0.00022412,"INCLINATION":86.4917,"RA_OF_ASC_NODE":78.8492,"ARG_OF_PERICENTER":100.7785,"MEAN_ANOMALY":259.3602,"EPHEMERIS_TYPE":0,"CLASSIFICATION_TYPE":"U","NORAD_CAT_ID":65820,"ELEMENT_SET_NO":999,"REV_AT_EPOCH":2121,"BSTAR":8.533046e-6,"MEAN_MOTION_DOT":1.8e-7,"MEAN_MOTION_DDOT":0},{"OBJECT_NAME":"HULIANWANG DIGUI-86","OBJECT_ID":"2025-220E","EPOCH":"2026-03-05T15:11:56.403744","MEAN_MOTION":13.24420884,"ECCENTRICITY":0.00022385,"INCLINATION":86.4896,"RA_OF_ASC_NODE":78.8104,"ARG_OF_PERICENTER":100.3183,"MEAN_ANOMALY":259.8204,"EPHEMERIS_TYPE":0,"CLASSIFICATION_TYPE":"U","NORAD_CAT_ID":65821,"ELEMENT_SET_NO":999,"REV_AT_EPOCH":2121,"BSTAR":1.2652377e-5,"MEAN_MOTION_DOT":2.0e-7,"MEAN_MOTION_DDOT":0},{"OBJECT_NAME":"HULIANWANG DIGUI-87","OBJECT_ID":"2025-231A","EPOCH":"2026-03-05T15:26:16.455264","MEAN_MOTION":13.29330254,"ECCENTRICITY":6.103e-5,"INCLINATION":49.9991,"RA_OF_ASC_NODE":187.2367,"ARG_OF_PERICENTER":184.5324,"MEAN_ANOMALY":175.5543,"EPHEMERIS_TYPE":0,"CLASSIFICATION_TYPE":"U","NORAD_CAT_ID":65995,"ELEMENT_SET_NO":999,"REV_AT_EPOCH":1911,"BSTAR":6.4413056e-5,"MEAN_MOTION_DOT":-9.4e-7,"MEAN_MOTION_DDOT":0},{"OBJECT_NAME":"HULIANWANG DIGUI-88","OBJECT_ID":"2025-231B","EPOCH":"2026-03-05T15:38:20.143392","MEAN_MOTION":13.29329374,"ECCENTRICITY":6.314e-5,"INCLINATION":49.9977,"RA_OF_ASC_NODE":187.2665,"ARG_OF_PERICENTER":189.9298,"MEAN_ANOMALY":170.1561,"EPHEMERIS_TYPE":0,"CLASSIFICATION_TYPE":"U","NORAD_CAT_ID":65996,"ELEMENT_SET_NO":999,"REV_AT_EPOCH":1911,"BSTAR":8.7484334e-5,"MEAN_MOTION_DOT":-8.3e-7,"MEAN_MOTION_DDOT":0},{"OBJECT_NAME":"HULIANWANG DIGUI-89","OBJECT_ID":"2025-231C","EPOCH":"2026-03-05T13:25:59.048544","MEAN_MOTION":13.29329952,"ECCENTRICITY":6.419e-5,"INCLINATION":49.9955,"RA_OF_ASC_NODE":187.4234,"ARG_OF_PERICENTER":190.3772,"MEAN_ANOMALY":169.7087,"EPHEMERIS_TYPE":0,"CLASSIFICATION_TYPE":"U","NORAD_CAT_ID":65997,"ELEMENT_SET_NO":999,"REV_AT_EPOCH":1910,"BSTAR":8.9484311e-5,"MEAN_MOTION_DOT":-8.3e-7,"MEAN_MOTION_DDOT":0},{"OBJECT_NAME":"HULIANWANG DIGUI-90","OBJECT_ID":"2025-231D","EPOCH":"2026-03-05T15:02:12.760512","MEAN_MOTION":13.29330097,"ECCENTRICITY":6.122e-5,"INCLINATION":49.9983,"RA_OF_ASC_NODE":187.1436,"ARG_OF_PERICENTER":191.8111,"MEAN_ANOMALY":168.2747,"EPHEMERIS_TYPE":0,"CLASSIFICATION_TYPE":"U","NORAD_CAT_ID":65998,"ELEMENT_SET_NO":999,"REV_AT_EPOCH":1911,"BSTAR":7.441043e-5,"MEAN_MOTION_DOT":-9.0e-7,"MEAN_MOTION_DDOT":0},{"OBJECT_NAME":"HULIANWANG DIGUI-91","OBJECT_ID":"2025-231E","EPOCH":"2026-03-05T14:50:11.192640","MEAN_MOTION":13.29330036,"ECCENTRICITY":6.303e-5,"INCLINATION":50.0003,"RA_OF_ASC_NODE":187.1243,"ARG_OF_PERICENTER":189.8602,"MEAN_ANOMALY":170.2258,"EPHEMERIS_TYPE":0,"CLASSIFICATION_TYPE":"U","NORAD_CAT_ID":65999,"ELEMENT_SET_NO":999,"REV_AT_EPOCH":1911,"BSTAR":6.93565e-5,"MEAN_MOTION_DOT":-9.2e-7,"MEAN_MOTION_DDOT":0},{"OBJECT_NAME":"HULIANWANG DIGUI-92","OBJECT_ID":"2025-231F","EPOCH":"2026-03-05T14:38:08.575008","MEAN_MOTION":13.29330588,"ECCENTRICITY":6.286e-5,"INCLINATION":50.0044,"RA_OF_ASC_NODE":187.1262,"ARG_OF_PERICENTER":190.8317,"MEAN_ANOMALY":169.2542,"EPHEMERIS_TYPE":0,"CLASSIFICATION_TYPE":"U","NORAD_CAT_ID":66000,"ELEMENT_SET_NO":999,"REV_AT_EPOCH":1911,"BSTAR":7.729164e-5,"MEAN_MOTION_DOT":-8.8e-7,"MEAN_MOTION_DDOT":0},{"OBJECT_NAME":"HULIANWANG DIGUI-93","OBJECT_ID":"2025-231G","EPOCH":"2026-03-05T14:14:08.075328","MEAN_MOTION":13.29329705,"ECCENTRICITY":6.143e-5,"INCLINATION":50.0011,"RA_OF_ASC_NODE":187.0063,"ARG_OF_PERICENTER":190.1544,"MEAN_ANOMALY":169.9316,"EPHEMERIS_TYPE":0,"CLASSIFICATION_TYPE":"U","NORAD_CAT_ID":66001,"ELEMENT_SET_NO":999,"REV_AT_EPOCH":1911,"BSTAR":8.0202372e-5,"MEAN_MOTION_DOT":-8.7e-7,"MEAN_MOTION_DDOT":0},{"OBJECT_NAME":"HULIANWANG DIGUI-94","OBJECT_ID":"2025-231H","EPOCH":"2026-03-05T14:26:07.003680","MEAN_MOTION":13.29330834,"ECCENTRICITY":6.306e-5,"INCLINATION":50.005,"RA_OF_ASC_NODE":187.0943,"ARG_OF_PERICENTER":191.6048,"MEAN_ANOMALY":168.481,"EPHEMERIS_TYPE":0,"CLASSIFICATION_TYPE":"U","NORAD_CAT_ID":66002,"ELEMENT_SET_NO":999,"REV_AT_EPOCH":1911,"BSTAR":7.3450796e-5,"MEAN_MOTION_DOT":-9.0e-7,"MEAN_MOTION_DDOT":0},{"OBJECT_NAME":"HULIANWANG DIGUI-95","OBJECT_ID":"2025-231J","EPOCH":"2026-03-05T14:02:18.855744","MEAN_MOTION":13.29325811,"ECCENTRICITY":6.354e-5,"INCLINATION":50.0023,"RA_OF_ASC_NODE":186.9778,"ARG_OF_PERICENTER":188.4754,"MEAN_ANOMALY":171.6107,"EPHEMERIS_TYPE":0,"CLASSIFICATION_TYPE":"U","NORAD_CAT_ID":66003,"ELEMENT_SET_NO":999,"REV_AT_EPOCH":1911,"BSTAR":7.9868797e-5,"MEAN_MOTION_DOT":-8.7e-7,"MEAN_MOTION_DDOT":0},{"OBJECT_NAME":"HULIANWANG DIGUI-96","OBJECT_ID":"2025-258A","EPOCH":"2026-03-05T09:11:21.247584","MEAN_MOTION":13.29331483,"ECCENTRICITY":3.927e-5,"INCLINATION":50.005,"RA_OF_ASC_NODE":307.9365,"ARG_OF_PERICENTER":97.4396,"MEAN_ANOMALY":262.652,"EPHEMERIS_TYPE":0,"CLASSIFICATION_TYPE":"U","NORAD_CAT_ID":66412,"ELEMENT_SET_NO":999,"REV_AT_EPOCH":1592,"BSTAR":0.00014709732,"MEAN_MOTION_DOT":-5.6e-7,"MEAN_MOTION_DDOT":0}]
