HULIANWANG DIGUI-81     
1 65313U 25187J   26064.60684629 -.00000101  00000+0  48707-4 0  9992
2 65313  50.0056 217.3197 0001061 138.2553 221.8400 13.29341395 25937
HULIANWANG DIGUI-82     
1 65817U 25220A   26064.58789896  .00000056  00000+0  96413-4 0  9993
2 65817  86.4896  78.8516 0002260 100.4751 259.6638 13.24421856 21203
HULIANWANG DIGUI-83     
1 65818U 25220B   26064.58039364  .00000040  00000+0  58158-4 0  9999
2 65818  86.4919  78.8845 0002252 100.4597 259.6791 13.24421036 21204
HULIANWANG DIGUI-84     
1 65819U 25220C   26064.57281162  .00000035  00000+0  48345-4 0  9995
2 65819  86.4856  78.7779 0002246  99.6647 260.4741 13.24421498 21205
HULIANWANG DIGUI-85     
1 65820U 25220D   26064.64075825  .00000018  00000+0  85330-5 0  9999
2 65820  86.4917  78.8492 0002241 100.7785 259.3602 13.24422018 21213
HULIANWANG DIGUI-86     
1 65821U 25220E   26064.63329171  .00000020  00000+0  12652-4 0  9994
2 65821  86.4896  78.8104 0002238 100.3183 259.8204 13.24420884 21216
HULIANWANG DIGUI-87     
1 65995U 25231A   26064.64324601 -.00000094  00000+0  64413-4 0  9996
2 65995  49.9991 187.2367 0000610 184.5324 175.5543 13.29330254 19119
HULIANWANG DIGUI-88     
1 65996U 25231B   26064.65162203 -.00000083  00000+0  87484-4 0  9997
2 65996  49.9977 187.2665 0000631 189.9298 170.1561 13.29329374 19119
HULIANWANG DIGUI-89     
1 65997U 25231C   26064.55971121 -.00000083  00000+0  89484-4 0  9996
2 65997  49.9955 187.4234 0000641 190.3772 169.7087 13.29329952 19102
HULIANWANG DIGUI-90     
1 65998U 25231D   26064.62653658 -.00000090  00000+0  74410-4 0  9998
2 65998  49.9983 187.1436 0000612 191.8111 168.2747 13.29330097 19116
HULIANWANG DIGUI-91     
1 65999U 25231E   26064.61818510 -.00000092  00000+0  69356-4 0  9993
2 65999  50.0003 187.1243 0000630 189.8602 170.2258 13.29330036 19114
HULIANWANG DIGUI-92     
1 66000U 25231F   26064.60982147 -.00000088  00000+0  77292-4 0  9997
2 66000  50.0044 187.1262 0000628 190.8317 169.2542 13.29330588 19112
HULIANWANG DIGUI-93     
1 66001U 25231G   26064.59314902 -.00000087  00000+0  80202-4 0  9998
2 66001  50.0011 187.0063 0000614 190.1544 169.9316 13.29329705 19110
HULIANWANG DIGUI-94     
1 66002U 25231H   26064.60146995 -.00000090  00000+0  73451-4 0  9998
2 66002  50.0050 187.0943 0000630 191.6048 168.4810 13.29330834 19112
HULIANWANG DIGUI-95     
1 66003U 25231J   26064.58494046 -.00000087  00000+0  79869-4 0  9994
2 66003  50.0023 186.9778 0000635 188.4754 171.6107 13.29325811 19114
HULIANWANG DIGUI-96     
1 66412U 25258A   26064.38288481 -.00000056  00000+0  14710-3 0  9998
2 66412  50.0050 307.9365 0000392  97.4396 262.6520 13.29331483 15923
